[{"OBJECT_NAME":"ORBCOMM FM16","OBJECT_ID":"1998-046E","EPOCH":"2026-04-05T19:14:08.047392","MEAN_MOTION":14.39919104,"ECCENTRICITY":0.0003638,"INCLINATION":44.9923,"RA_OF_ASC_NODE":222.1745,"ARG_OF_PERICENTER":311.0324,"MEAN_ANOMALY":49.021,"EPHEMERIS_TYPE":0,"CLASSIFICATION_TYPE":"U","NORAD_CAT_ID":25417,"ELEMENT_SET_NO":999,"REV_AT_EPOCH":44641,"BSTAR":0.00061273,"MEAN_MOTION_DOT":1.802e-5,"MEAN_MOTION_DDOT":0},{"OBJECT_NAME":"ORBCOMM FM15","OBJECT_ID":"1998-046F","EPOCH":"2026-04-05T15:27:54.302400","MEAN_MOTION":14.39537766,"ECCENTRICITY":0.0003221,"INCLINATION":44.9961,"RA_OF_ASC_NODE":228.9713,"ARG_OF_PERICENTER":311.2266,"MEAN_ANOMALY":48.8304,"EPHEMERIS_TYPE":0,"CLASSIFICATION_TYPE":"U","NORAD_CAT_ID":25418,"ELEMENT_SET_NO":999,"REV_AT_EPOCH":44637,"BSTAR":0.00057145,"MEAN_MOTION_DOT":1.657e-5,"MEAN_MOTION_DDOT":0},{"OBJECT_NAME":"ORBCOMM FM14","OBJECT_ID":"1998-046G","EPOCH":"2026-04-05T18:55:28.598016","MEAN_MOTION":14.39981649,"ECCENTRICITY":0.0002378,"INCLINATION":44.9939,"RA_OF_ASC_NODE":225.5881,"ARG_OF_PERICENTER":293.3581,"MEAN_ANOMALY":66.7017,"EPHEMERIS_TYPE":0,"CLASSIFICATION_TYPE":"U","NORAD_CAT_ID":25419,"ELEMENT_SET_NO":999,"REV_AT_EPOCH":44637,"BSTAR":0.00054266,"MEAN_MOTION_DOT":1.582e-5,"MEAN_MOTION_DDOT":0},{"OBJECT_NAME":"ORBCOMM FM13","OBJECT_ID":"1998-046H","EPOCH":"2026-04-05T09:55:08.261184","MEAN_MOTION":14.38514337,"ECCENTRICITY":0.00045817,"INCLINATION":44.9969,"RA_OF_ASC_NODE":238.425,"ARG_OF_PERICENTER":292.9774,"MEAN_ANOMALY":67.0591,"EPHEMERIS_TYPE":0,"CLASSIFICATION_TYPE":"U","NORAD_CAT_ID":25420,"ELEMENT_SET_NO":999,"REV_AT_EPOCH":44530,"BSTAR":0.00052271461,"MEAN_MOTION_DOT":1.47e-5,"MEAN_MOTION_DDOT":0},{"OBJECT_NAME":"ORBCOMM FM21","OBJECT_ID":"1998-053A","EPOCH":"2026-04-05T16:56:22.466112","MEAN_MOTION":14.38074066,"ECCENTRICITY":9.94e-5,"INCLINATION":45.0093,"RA_OF_ASC_NODE":323.4562,"ARG_OF_PERICENTER":281.1211,"MEAN_ANOMALY":78.9525,"EPHEMERIS_TYPE":0,"CLASSIFICATION_TYPE":"U","NORAD_CAT_ID":25475,"ELEMENT_SET_NO":999,"REV_AT_EPOCH":43934,"BSTAR":0.00043148,"MEAN_MOTION_DOT":1.177e-5,"MEAN_MOTION_DDOT":0},{"OBJECT_NAME":"ORBCOMM FM22","OBJECT_ID":"1998-053B","EPOCH":"2026-04-05T20:35:08.335968","MEAN_MOTION":14.3931925,"ECCENTRICITY":0.0002561,"INCLINATION":45.0083,"RA_OF_ASC_NODE":315.0006,"ARG_OF_PERICENTER":261.1085,"MEAN_ANOMALY":98.9474,"EPHEMERIS_TYPE":0,"CLASSIFICATION_TYPE":"U","NORAD_CAT_ID":25476,"ELEMENT_SET_NO":999,"REV_AT_EPOCH":43942,"BSTAR":0.00045414,"MEAN_MOTION_DOT":1.281e-5,"MEAN_MOTION_DDOT":0},{"OBJECT_NAME":"ORBCOMM FM23","OBJECT_ID":"1998-053C","EPOCH":"2026-04-05T15:51:29.569824","MEAN_MOTION":14.38344456,"ECCENTRICITY":0.0001837,"INCLINATION":45.0092,"RA_OF_ASC_NODE":325.286,"ARG_OF_PERICENTER":261.2816,"MEAN_ANOMALY":98.7825,"EPHEMERIS_TYPE":0,"CLASSIFICATION_TYPE":"U","NORAD_CAT_ID":25477,"ELEMENT_SET_NO":999,"REV_AT_EPOCH":43949,"BSTAR":0.0004678,"MEAN_MOTION_DOT":1.296e-5,"MEAN_MOTION_DDOT":0},{"OBJECT_NAME":"ORBCOMM FM24","OBJECT_ID":"1998-053D","EPOCH":"2026-04-05T21:24:01.996128","MEAN_MOTION":14.38998769,"ECCENTRICITY":0.0001637,"INCLINATION":45.0088,"RA_OF_ASC_NODE":320.2926,"ARG_OF_PERICENTER":272.1494,"MEAN_ANOMALY":87.9167,"EPHEMERIS_TYPE":0,"CLASSIFICATION_TYPE":"U","NORAD_CAT_ID":25478,"ELEMENT_SET_NO":999,"REV_AT_EPOCH":43959,"BSTAR":0.00046943,"MEAN_MOTION_DOT":1.32e-5,"MEAN_MOTION_DDOT":0},{"OBJECT_NAME":"ORBCOMM FM25","OBJECT_ID":"1998-053E","EPOCH":"2026-04-05T20:52:01.183296","MEAN_MOTION":14.38958564,"ECCENTRICITY":0.0003982,"INCLINATION":45.0081,"RA_OF_ASC_NODE":318.719,"ARG_OF_PERICENTER":280.4379,"MEAN_ANOMALY":79.602,"EPHEMERIS_TYPE":0,"CLASSIFICATION_TYPE":"U","NORAD_CAT_ID":25479,"ELEMENT_SET_NO":999,"REV_AT_EPOCH":43988,"BSTAR":0.00043922,"MEAN_MOTION_DOT":1.225e-5,"MEAN_MOTION_DDOT":0},{"OBJECT_NAME":"ORBCOMM FM26","OBJECT_ID":"1998-053F","EPOCH":"2026-04-05T21:03:40.905792","MEAN_MOTION":14.37879168,"ECCENTRICITY":0.000593,"INCLINATION":45.0074,"RA_OF_ASC_NODE":317.3949,"ARG_OF_PERICENTER":295.5414,"MEAN_ANOMALY":64.4821,"EPHEMERIS_TYPE":0,"CLASSIFICATION_TYPE":"U","NORAD_CAT_ID":25480,"ELEMENT_SET_NO":999,"REV_AT_EPOCH":43976,"BSTAR":0.00036732,"MEAN_MOTION_DOT":9.77e-6,"MEAN_MOTION_DDOT":0},{"OBJECT_NAME":"ORBCOMM FM27","OBJECT_ID":"1998-053G","EPOCH":"2026-04-05T08:44:03.129504","MEAN_MOTION":14.39003123,"ECCENTRICITY":5.188e-5,"INCLINATION":45.0065,"RA_OF_ASC_NODE":321.2021,"ARG_OF_PERICENTER":335.8341,"MEAN_ANOMALY":24.2483,"EPHEMERIS_TYPE":0,"CLASSIFICATION_TYPE":"U","NORAD_CAT_ID":25481,"ELEMENT_SET_NO":999,"REV_AT_EPOCH":43974,"BSTAR":0.00049916377,"MEAN_MOTION_DOT":1.412e-5,"MEAN_MOTION_DDOT":0},{"OBJECT_NAME":"ORBCOMM FM28","OBJECT_ID":"1998-053H","EPOCH":"2026-04-05T18:56:49.811424","MEAN_MOTION":14.39092721,"ECCENTRICITY":0.000357,"INCLINATION":45.0048,"RA_OF_ASC_NODE":256.3651,"ARG_OF_PERICENTER":322.0631,"MEAN_ANOMALY":37.9966,"EPHEMERIS_TYPE":0,"CLASSIFICATION_TYPE":"U","NORAD_CAT_ID":25482,"ELEMENT_SET_NO":999,"REV_AT_EPOCH":44049,"BSTAR":0.0005047,"MEAN_MOTION_DOT":1.433e-5,"MEAN_MOTION_DDOT":0},{"OBJECT_NAME":"ORBCOMM FM30","OBJECT_ID":"1999-065A","EPOCH":"2026-04-05T13:21:21.458304","MEAN_MOTION":14.38041362,"ECCENTRICITY":0.0004875,"INCLINATION":45.0304,"RA_OF_ASC_NODE":145.0366,"ARG_OF_PERICENTER":16.9037,"MEAN_ANOMALY":343.1973,"EPHEMERIS_TYPE":0,"CLASSIFICATION_TYPE":"U","NORAD_CAT_ID":25980,"ELEMENT_SET_NO":999,"REV_AT_EPOCH":37652,"BSTAR":0.00040065,"MEAN_MOTION_DOT":1.082e-5,"MEAN_MOTION_DDOT":0},{"OBJECT_NAME":"ORBCOMM FM31","OBJECT_ID":"1999-065B","EPOCH":"2026-04-05T13:03:31.204224","MEAN_MOTION":14.37960829,"ECCENTRICITY":0.000186,"INCLINATION":45.0217,"RA_OF_ASC_NODE":138.5334,"ARG_OF_PERICENTER":38.0045,"MEAN_ANOMALY":322.0935,"EPHEMERIS_TYPE":0,"CLASSIFICATION_TYPE":"U","NORAD_CAT_ID":25981,"ELEMENT_SET_NO":999,"REV_AT_EPOCH":37607,"BSTAR":0.00039421,"MEAN_MOTION_DOT":1.06e-5,"MEAN_MOTION_DDOT":0},{"OBJECT_NAME":"ORBCOMM FM32","OBJECT_ID":"1999-065C","EPOCH":"2026-04-05T13:46:58.725984","MEAN_MOTION":14.37023076,"ECCENTRICITY":0.0003921,"INCLINATION":45.0143,"RA_OF_ASC_NODE":156.9146,"ARG_OF_PERICENTER":47.5342,"MEAN_ANOMALY":312.5837,"EPHEMERIS_TYPE":0,"CLASSIFICATION_TYPE":"U","NORAD_CAT_ID":25982,"ELEMENT_SET_NO":999,"REV_AT_EPOCH":37664,"BSTAR":0.00037549,"MEAN_MOTION_DOT":9.82e-6,"MEAN_MOTION_DDOT":0},{"OBJECT_NAME":"ORBCOMM FM33","OBJECT_ID":"1999-065D","EPOCH":"2026-04-05T13:46:46.831296","MEAN_MOTION":14.40853977,"ECCENTRICITY":0.000693,"INCLINATION":45.0292,"RA_OF_ASC_NODE":47.936,"ARG_OF_PERICENTER":84.6906,"MEAN_ANOMALY":275.4734,"EPHEMERIS_TYPE":0,"CLASSIFICATION_TYPE":"U","NORAD_CAT_ID":25983,"ELEMENT_SET_NO":999,"REV_AT_EPOCH":37822,"BSTAR":0.00048434,"MEAN_MOTION_DOT":1.424e-5,"MEAN_MOTION_DDOT":0},{"OBJECT_NAME":"ORBCOMM FM36","OBJECT_ID":"1999-065E","EPOCH":"2026-04-05T10:14:28.145760","MEAN_MOTION":14.39058381,"ECCENTRICITY":0.00042375,"INCLINATION":45.038,"RA_OF_ASC_NODE":144.9646,"ARG_OF_PERICENTER":298.0165,"MEAN_ANOMALY":62.0255,"EPHEMERIS_TYPE":0,"CLASSIFICATION_TYPE":"U","NORAD_CAT_ID":25984,"ELEMENT_SET_NO":999,"REV_AT_EPOCH":37650,"BSTAR":0.00053236091,"MEAN_MOTION_DOT":1.518e-5,"MEAN_MOTION_DDOT":0}]
