ORBCOMM FM16            
1 25417U 98046E   26095.80148203  .00001802  00000+0  61273-3 0  9996
2 25417  44.9923 222.1745 0003638 311.0324  49.0210 14.39919104446415
ORBCOMM FM15            
1 25418U 98046F   26095.64437850  .00001657  00000+0  57145-3 0  9999
2 25418  44.9961 228.9713 0003221 311.2266  48.8304 14.39537766446378
ORBCOMM FM14            
1 25419U 98046G   26095.78852544  .00001582  00000+0  54266-3 0  9994
2 25419  44.9939 225.5881 0002378 293.3581  66.7017 14.39981649446378
ORBCOMM FM13            
1 25420U 98046H   26095.41329006  .00001470  00000+0  52271-3 0  9998
2 25420  44.9969 238.4250 0004581 292.9774  67.0591 14.38514337445301
ORBCOMM FM21            
1 25475U 98053A   26095.70581558  .00001177  00000+0  43148-3 0  9997
2 25475  45.0093 323.4562 0000994 281.1211  78.9525 14.38074066439347
ORBCOMM FM22            
1 25476U 98053B   26095.85773537  .00001281  00000+0  45414-3 0  9998
2 25476  45.0083 315.0006 0002561 261.1085  98.9474 14.39319250439428
ORBCOMM FM23            
1 25477U 98053C   26095.66075891  .00001296  00000+0  46780-3 0  9999
2 25477  45.0092 325.2860 0001837 261.2816  98.7825 14.38344456439498
ORBCOMM FM24            
1 25478U 98053D   26095.89168977  .00001320  00000+0  46943-3 0  9992
2 25478  45.0088 320.2926 0001637 272.1494  87.9167 14.38998769439595
ORBCOMM FM25            
1 25479U 98053E   26095.86945814  .00001225  00000+0  43922-3 0  9991
2 25479  45.0081 318.7190 0003982 280.4379  79.6020 14.38958564439880
ORBCOMM FM26            
1 25480U 98053F   26095.87755678  .00000977  00000+0  36732-3 0  9995
2 25480  45.0074 317.3949 0005930 295.5414  64.4821 14.37879168439762
ORBCOMM FM27            
1 25481U 98053G   26095.36392511  .00001412  00000+0  49916-3 0  9996
2 25481  45.0065 321.2021 0000518 335.8341  24.2483 14.39003123439740
ORBCOMM FM28            
1 25482U 98053H   26095.78946541  .00001433  00000+0  50470-3 0  9991
2 25482  45.0048 256.3651 0003570 322.0631  37.9966 14.39092721440493
ORBCOMM FM30            
1 25980U 99065A   26095.55649836  .00001082  00000+0  40065-3 0  9999
2 25980  45.0304 145.0366 0004875  16.9037 343.1973 14.38041362376522
ORBCOMM FM31            
1 25981U 99065B   26095.54411116  .00001060  00000+0  39421-3 0  9997
2 25981  45.0217 138.5334 0001860  38.0045 322.0935 14.37960829376074
ORBCOMM FM32            
1 25982U 99065C   26095.57429081  .00000982  00000+0  37549-3 0  9992
2 25982  45.0143 156.9146 0003921  47.5342 312.5837 14.37023076376645
ORBCOMM FM33            
1 25983U 99065D   26095.57415314  .00001424  00000+0  48434-3 0  9994
2 25983  45.0292  47.9360 0006930  84.6906 275.4734 14.40853977378223
ORBCOMM FM36            
1 25984U 99065E   26095.42671465  .00001518  00000+0  53236-3 0  9990
2 25984  45.0380 144.9646 0004237 298.0165  62.0255 14.39058381376504
